GPS BIIA-23 (PRN 18)    
1 22877U 93068A   18226.44453632 -.00000048  00000-0  00000+0 0  9994
2 22877  54.4652  81.1124 0146705  76.2770 268.3820  2.00567929181710
GPS BIIR-2  (PRN 13)    
1 24876U 97035A   18226.36023852  .00000034  00000-0  00000+0 0  9995
2 24876  55.4852 210.4849 0030809  85.5951 274.7354  2.00564446154316
GPS BIIR-3  (PRN 11)    
1 25933U 99055A   18226.44995747 -.00000068  00000-0  00000+0 0  9992
2 25933  51.9285  59.1516 0168018 103.2107 248.1395  2.00565807138130
GPS BIIR-4  (PRN 20)    
1 26360U 00025A   18226.30754885 -.00000014  00000-0  00000+0 0  9998
2 26360  53.2173 137.2431 0039279 120.3458 174.9931  2.00563160133828
GPS BIIR-5  (PRN 28)    
1 26407U 00040A   18226.46650910 -.00000076  00000-0  00000+0 0  9996
2 26407  56.4479 328.6178 0197442 273.0094 115.1239  2.00562615132503
GPS BIIR-6  (PRN 14)    
1 26605U 00071A   18226.37792139  .00000033  00000-0  00000+0 0  9992
2 26605  55.0586 208.0529 0102881 249.0868 341.5229  2.00570173130109
GPS BIIR-8  (PRN 16)    
1 27663U 03005A   18226.37485741 -.00000075  00000-0  00000+0 0  9992
2 27663  56.5116 328.3816 0098574  28.8865  53.2328  2.00563354113861
GPS BIIR-9  (PRN 21)    
1 27704U 03010A   18226.24273207 -.00000047  00000-0  00000+0 0  9991
2 27704  54.1364  80.6883 0245419 271.9883  34.2655  2.00566090112660
GPS BIIR-10 (PRN 22)    
1 28129U 03058A   18226.05660215 -.00000012  00000-0  00000+0 0  9995
2 28129  53.0304 140.0973 0074135 274.1691  85.0088  2.00554972107352
GPS BIIR-11 (PRN 19)    
1 28190U 04009A   18226.05813150 -.00000076  00000-0  00000+0 0  9998
2 28190  56.1943  29.2234 0095691  71.5609 288.1286  2.00558337105532
GPS BIIR-12 (PRN 23)    
1 28361U 04023A   18226.34764413  .00000029  00000-0  00000+0 0  9990
2 28361  54.0610 202.7358 0128297 226.9493 258.2310  2.00554184103621
GPS BIIR-13 (PRN 02)    
1 28474U 04045A   18225.63739997 -.00000041  00000-0  00000-0 0  9995
2 28474  54.5029  80.3492 0181744 254.8139  76.6376  2.00549624100979
GPS BIIRM-1 (PRN 17)    
1 28874U 05038A   18225.57877316 -.00000076  00000-0  00000-0 0  9991
2 28874  56.3323  26.5592 0126814 258.3125 140.2285  2.00572787 94384
GPS BIIRM-2 (PRN 31)    
1 29486U 06042A   18226.32217314  .00000001  00000-0  00000+0 0  9993
2 29486  55.1486 265.3386 0088439 351.5337 146.6580  2.00558426 87100
GPS BIIRM-3 (PRN 12)    
1 29601U 06052A   18226.07043477 -.00000072  00000-0  00000+0 0  9991
2 29601  56.4881 327.3101 0068968  56.9506 303.7447  2.00579256 86016
GPS BIIRM-4 (PRN 15)    
1 32260U 07047A   18225.89822491  .00000023  00000-0  00000+0 0  9996
2 32260  53.1852 198.7243 0103512  38.8762 321.8280  2.00548893 79390
GPS BIIRM-5 (PRN 29)    
1 32384U 07062A   18226.25591111 -.00000077  00000-0  00000+0 0  9993
2 32384  56.4083  27.1465 0006034  84.3289 311.0572  2.00566903 78139
GPS BIIRM-6 (PRN 07)    
1 32711U 08012A   18226.30371091  .00000001  00000-0  00000+0 0  9998
2 32711  54.8834 264.6037 0121484 217.4862 141.7229  2.00566536 76312
GPS BIIRM-8 (PRN 05)    
1 35752U 09043A   18226.51734653 -.00000009  00000-0  00000+0 0  9990
2 35752  54.3326 142.3459 0054257  35.6274 146.4340  2.00552802 65901
GPS BIIF-1  (PRN 25)    
1 36585U 10022A   18225.72262436 -.00000068  00000-0  00000-0 0  9997
2 36585  55.7769 323.8444 0072722  48.7039  25.0590  2.00571470 60145
GPS BIIF-2  (PRN 01)    
1 37753U 11036A   18225.93311819 -.00000039  00000-0  00000-0 0  9992
2 37753  55.7015  83.9331 0079209  37.5064 273.8225  2.00564559 51820
GPS BIIF-3  (PRN 24)    
1 38833U 12053A   18225.48678438  .00000009  00000-0  00000-0 0  9991
2 38833  53.9148 261.1376 0069767  28.9643 331.4851  2.00567762 42095
GPS BIIF-4  (PRN 27)    
1 39166U 13023A   18225.84511850 -.00000079  00000-0  00000-0 0  9991
2 39166  56.0277  23.4265 0059207  24.1664 336.1165  2.00561961 38435
GPS BIIF-5  (PRN 30)    
1 39533U 14008A   18225.34662966  .00000005  00000-0  00000-0 0  9991
2 39533  54.0571 266.5015 0036557 191.8224 168.1612  2.00559805 32245
GPS BIIF-6  (PRN 06)    
1 39741U 14026A   18225.12539840 -.00000032  00000-0  00000-0 0  9993
2 39741  55.6839  83.4884 0012035 293.6804  66.2758  2.00563025 31056
GPS BIIF-7  (PRN 09)    
1 40105U 14045A   18225.71305503  .00000027  00000-0  00000-0 0  9995
2 40105  54.5872 202.8972 0007054 106.8424 253.2045  2.00575776 28655
GPS BIIF-8  (PRN 03)    
1 40294U 14068A   18225.58961091 -.00000006  00000-0  00000-0 0  9992
2 40294  55.0839 143.6953 0015264  24.3924 335.6964  2.00560167 27758
GPS BIIF-9  (PRN 26)    
1 40534U 15013A   18225.72383179 -.00000069  00000-0  00000-0 0  9990
2 40534  54.7159 322.5060 0028100   0.4073 359.6376  2.00560125 24378
GPS BIIF-10  (PRN 08)   
1 40730U 15033A   18225.88492361 -.00000081  00000-0  00000-0 0  9995
2 40730  55.5572  22.9046 0035622 333.6623  26.1633  2.00571312 22569
GPS BIIF-11  (PRN 10)   
1 41019U 15062A   18225.43783549 -.00000006  00000-0  00000-0 0  9997
2 41019  55.0882 143.5060 0037788 204.1710 155.6681  2.00564337 20376
GPS BIIF-12  (PRN 32)   
1 41328U 16007A   18225.52581562  .00000026  00000-0  00000-0 0  9992
2 41328  54.8366 203.2107 0024391 219.6961 140.0952  2.00560941 18434
